STARLETTE               
1 07646U 75010A   23354.49770408 -.00000132  00000+0  73755-5 0  9990
2 07646  49.8250  95.2470 0205796 297.8940  60.1246 13.82323073468681
LAGEOS 1                
1 08820U 76039A   23353.56616078 -.00000002  00000+0  00000+0 0  9999
2 08820 109.8225 227.4016 0044632 137.8038  20.6874  6.38664810855397
AJISAI (EGS)            
1 16908U 86061A   23354.17666674 -.00000088  00000+0  66506-4 0  9998
2 16908  50.0106  65.6278 0011245  24.6245  57.7796 12.44503102367423
COSMOS 1989 (ETALON 1)  
1 19751U 89001C   23354.51599692  .00000002  00000+0  00000+0 0  9994
2 19751  64.4793 103.4210 0024001 215.1828 104.4232  2.13156046272042
COSMOS 2024 (ETALON 2)  
1 20026U 89039C   23353.35654459 -.00000039  00000+0  00000+0 0  9997
2 20026  65.4106 341.7200 0019185 218.0951 293.7337  2.13204218269083
LAGEOS 2                
1 22195U 92070B   23353.47091851 -.00000009  00000+0  00000+0 0  9996
2 22195  52.6445 122.1895 0138240 148.6600 259.5540  6.47294036736465
STELLA                  
1 22824U 93061B   23354.44240709 -.00000029  00000+0  69565-5 0  9991
2 22824  98.9062  32.6762 0006484   9.4947 106.0098 14.27414855575142
LARETS                  
1 27944U 03042F   23354.43220634  .00000146  00000+0  37595-4 0  9999
2 27944  98.2874 128.5091 0012357   4.0894 356.0406 14.63430088 80363
LARES                   
1 38077U 12006A   23354.17139959 -.00000047  00000+0 -49611-4 0  9992
2 38077  69.4928  46.6347 0009342 196.6916 163.3804 12.54931358542996
LARES-2                 
1 53105U 22080A   23349.94988423  .00000007  00000+0  00000+0 0  9999
2 53105  70.1362 258.8747 0005246 178.3718 181.7050  6.38965106 33257
